STARLINK-4780           
1 53848U 22114AG  22285.91667824 -.00000850  00000+0 -16442-5 0  9996
2 53848  53.2175 140.6286 0001026 110.8190 147.3712 15.73204252  4335
STARLINK-4770           
1 53849U 22114AH  22285.91667824 -.00000823  00000+0 -14439-5 0  9991
2 53849  53.2175 140.6319 0001413  98.0554 158.3465 15.73204247  4335
STARLINK-4767           
1 53850U 22114AJ  22285.91667824 -.00017559  00000+0 -12088-3 0  9993
2 53850  53.2174 140.6246 0001366  86.6433 173.3320 15.73213549  4333
STARLINK-4755           
1 53851U 22114AK  22285.91667824 -.00000806  00000+0 -13292-5 0  9991
2 53851  53.2175 140.6297 0001275 106.8750 150.7191 15.73204231  4330
STARLINK-4797           
1 53852U 22114AL  22285.91667824 -.00015364  00000+0 -10520-3 0  9996
2 53852  53.2174 140.6224 0001146  98.5222 162.6457 15.73212272  4339
STARLINK-4794           
1 53853U 22114AM  22285.58334491 -.00094267  00000+0 -67290-3 0  9996
2 53853  53.2168 142.2750 0000994 109.3195  60.5013 15.73265878  4283
STARLINK-4800           
1 53854U 22114AN  22285.91667824  .00033875  00000+0  24498-3 0  9992
2 53854  53.2174 140.6202 0001263 107.3446 155.0284 15.73183051  4330
STARLINK-4703           
1 53855U 22114AP  22285.91667824 -.00008541  00000+0 -56479-4 0  9992
2 53855  53.2175 140.6255 0001249  94.7732 164.6079 15.73208541  4331
STARLINK-4795           
1 53856U 22114AQ  22285.91667824 -.00000973  00000+0 -25207-5 0  9990
2 53856  53.2175 140.6142 0000992 112.6425 152.7010 15.73204307  4339
STARLINK-4809           
1 53857U 22114AR  22285.91667824 -.00000871  00000+0 -17929-5 0  9990
2 53857  53.2175 140.6236 0001155 112.0105 148.5642 15.73204261  4338
STARLINK-4798           
1 53858U 22114AS  22285.91667824 -.00000921  00000+0 -21492-5 0  9997
2 53858  53.2175 140.6192 0001189 104.2665 158.6926 15.73204284  4333
STARLINK-4790           
1 53859U 22114AT  22285.91667824 -.00000940  00000+0 -22821-5 0  9996
2 53859  53.2175 140.6212 0001098 102.4820 159.2849 15.73204299  4336
STARLINK-4799           
1 53860U 22114AU  22285.58334491 -.00148686  00000+0 -10678-2 0  9996
2 53860  53.2167 142.2616 0001296 114.0065  61.7170 15.73330248  4287
STARLINK-4781           
1 53861U 22114AV  22285.58334491 -.00146166  00000+0 -10495-2 0  9995
2 53861  53.2162 142.2639 0001395 110.0221  64.5140 15.73325750  4288
STARLINK-4792           
1 53862U 22114AW  22285.91667824 -.00000973  00000+0 -25140-5 0  9993
2 53862  53.2175 140.6133 0001482 102.3668 163.5728 15.73204314  4330
STARLINK-4788           
1 53863U 22114AX  22285.91667824 -.00000980  00000+0 -25613-5 0  9997
2 53863  53.2175 140.6164 0001396  89.0643 175.0870 15.73204315  4330
STARLINK-4779           
1 53864U 22114AY  22285.91667824 -.00001002  00000+0 -27237-5 0  9998
2 53864  53.2175 140.6109 0001321  95.4184 171.7135 15.73204320  4332
STARLINK-4785           
1 53865U 22114AZ  22285.91667824 -.00000976  00000+0 -25384-5 0  9999
2 53865  53.2175 140.6116 0001361 100.5096 166.0261 15.73204309  4339
STARLINK-4762           
1 53866U 22114BA  22285.91667824 -.00001047  00000+0 -30487-5 0  9990
2 53866  53.2175 140.6074 0001041 105.6011 163.3191 15.73204343  4331
STARLINK-4793           
1 53867U 22114BB  22285.91667824 -.00000998  00000+0 -26971-5 0  9998
2 53867  53.2175 140.6092 0001041 105.2823 162.4456 15.73204314  4331
STARLINK-4789           
1 53868U 22114BC  22285.91667824 -.00019749  00000+0 -13654-3 0  9995
2 53868  53.2175 140.5964 0001097 119.1935 158.3061 15.73214549  4335
STARLINK-4810           
1 53869U 22114BD  22285.91667824 -.00001007  00000+0 -27621-5 0  9995
2 53869  53.2175 140.6080 0001138 108.5127 159.8113 15.73204321  4338
STARLINK-4732           
1 53870U 22114BE  22285.91667824 -.00001121  00000+0 -35765-5 0  9992
2 53870  53.2175 140.6051 0000823 104.5647 165.5476 15.73204384  4336
STARLINK-4740           
1 53871U 22114BF  22285.91667824 -.00001083  00000+0 -33000-5 0  9990
2 53871  53.2175 140.6033 0001381 101.8337 168.8748 15.73204367  4332
CHUANGXIN 16B (CX-16B)  
1 53876U 22102B   22285.60666066  .00006138  00000+0  57922-3 0  9996
2 53876  28.9995  44.4733 0005222  51.4043 308.7020 14.91968441  3411
YUNHAI-1 03             
1 53877U 22115A   22285.85550772  .00000448  00000+0  18013-3 0  9990
2 53877  98.4976 284.1624 0001489  87.0680 273.0674 14.32803854  3148
CZ-2D R/B               
1 53878U 22115B   22285.75867024  .00001561  00000+0  25267-3 0  9997
2 53878  98.5458 285.4443 0123559 335.1247  24.4072 14.67967679  3208
SOYUZ-MS 22             
1 53879U 22116A   22284.56067839  .00016241  00000+0  29255-3 0  9995
2 53879  51.6418 120.0355 0003212 288.5573 103.7200 15.49940618363238
2022-118A               
1 53884U 22118A   22285.82281806  .00007572  00000+0  32387-3 0  9992
2 53884  97.5207 292.3532 0014552 192.4091 270.5793 15.23025337  2724
2022-118B               
1 53885U 22118B   22285.81498606  .00010212  00000+0  42728-3 0  9995
2 53885  97.5208 292.3631 0011704 198.9537 263.0404 15.23710641  2712
STARLINK-5028           
1 53886U 22119A   22285.83334491  .00221136  00000+0  15480-2 0  9993
2 53886  53.2175 164.5704 0001138  97.4330 182.5024 15.73061972  3243
STARLINK-5029           
1 53887U 22119B   22285.83334491  .00281296  00000+0  19568-2 0  9998
2 53887  53.2174 164.5660 0001026  80.6708 201.0716 15.73025354  3242
STARLINK-5034           
1 53888U 22119C   22285.83334491 -.00169661  00000+0 -12227-2 0  9997
2 53888  53.2175 164.5697 0001714 302.3534 338.0423 15.73317064  3247
STARLINK-5031           
1 53889U 22119D   22285.58334491  .00097541  00000+0  69326-3 0  9998
2 53889  53.2172 165.8053 0001622  67.9792 236.4123 15.73135498  1305
STARLINK-5050           
1 53890U 22119E   22285.83334491 -.01195921  00000+0 -70426-2 0  9994
2 53890  53.2175 163.4560 0001088  83.2964  30.5193 15.80153682  3265
STARLINK-5041           
1 53891U 22119F   22285.83334491  .00047558  00000+0  34176-3 0  9997
2 53891  53.2174 164.5642 0000893  87.9072 194.9505 15.73172101  3241
STARLINK-5046           
1 53892U 22119G   22285.83334491 -.00101688  00000+0 -72659-3 0  9993
2 53892  53.2177 164.5588 0002077  20.8218 264.9637 15.73270903  3241
STARLINK-5052           
1 53893U 22119H   22285.83334491 -.00048654  00000+0 -34372-3 0  9997
2 53893  53.2173 164.5603 0001388 137.4378 147.1745 15.73235638  3240
STARLINK-5043           
1 53894U 22119J   22285.83334491 -.00149373  00000+0 -10741-2 0  9991
2 53894  53.2174 164.5636 0001033  86.0383 197.3447 15.73303880  3241
STARLINK-5032           
1 53895U 22119K   22285.83334491 -.00078231  00000+0 -55687-3 0  9995
2 53895  53.2174 164.5593 0000907  86.3902 198.8074 15.73255504  3244
STARLINK-5037           
1 53896U 22119L   22285.83334491 -.00103989  00000+0 -74289-3 0  9994
2 53896  53.2175 164.5579 0004188 284.4495   1.9310 15.73272550  3240
STARLINK-5035           
1 53897U 22119M   22285.83334491 -.00116861  00000+0 -83683-3 0  9996
2 53897  53.2175 164.5621 0001561 132.5508 151.4394 15.73282369  3241
STARLINK-5044           
1 53898U 22119N   22285.83334491 -.00229987  00000+0 -16679-2 0  9991
2 53898  53.2175 164.5545 0001484  37.6371 250.4847 15.73359337  3247
STARLINK-5042           
1 53899U 22119P   22285.83334491  .00003363  00000+0  28368-4 0  9998
2 53899  53.2175 164.5553 0001405  47.2353 240.3755 15.73201147  3248
STARLINK-5045           
1 53900U 22119Q   22285.58334491  .00037038  00000+0  26728-3 0  9996
2 53900  53.2177 165.7916 0001555  37.1018 275.5917 15.73188326  1309
STARLINK-5024           
1 53901U 22119R   22285.83334491 -.00000030  00000+0  42017-5 0  9999
2 53901  53.2176 164.5531 0001060  99.0691 187.9453 15.73204192  3240
STARLINK-5021           
1 53902U 22119S   22284.16667824  .00300409  00000+0  20742-2 0  9994
2 53902  53.2172 172.7910 0001093  89.3094 118.4046 15.73143355  1309
STARLINK-5022           
1 53903U 22119T   22285.58334491  .00002581  00000+0  22776-4 0  9994
2 53903  53.2171 165.7937 0000943  91.1065 220.9575 15.73224341  1303
STARLINK-4787           
1 53904U 22119U   22285.58334491  .00224006  00000+0  15618-2 0  9998
2 53904  53.2168 165.7897 0001048  86.7384 226.4878 15.73147181  1309
STARLINK-5003           
1 53905U 22119V   22285.58334491 -.00105654  00000+0 -75561-3 0  9992
2 53905  53.2169 165.7863 0000928 101.6925 213.3589 15.73270015  1305
STARLINK-5054           
1 53906U 22119W   22285.83334491  .00279881  00000+0  19473-2 0  9992
2 53906  53.2175 164.5432 0001765  29.8654 263.7994 15.73025717  3243
STARLINK-5063           
1 53907U 22119X   22285.58334491  .00011937  00000+0  89291-4 0  9998
2 53907  53.2171 165.7901 0001567  36.8951 276.9662 15.73214442  1300
STARLINK-5057           
1 53908U 22119Y   22285.91667824 -.00032835  00000+0 -23022-3 0  9996
2 53908  53.2176 164.1293 0001044  93.7596 312.6316 15.73223793  3260
STARLINK-4796           
1 53909U 22119Z   22285.58334491  .00076131  00000+0  54221-3 0  9991
2 53909  53.2168 165.7878 0001126  63.5812 250.8724 15.73189045  1305
STARLINK-5056           
1 53910U 22119AA  22285.58334491 -.00054040  00000+0 -38225-3 0  9996
2 53910  53.2169 165.7787 0000627 104.4820 214.7310 15.73253245  1300
STARLINK-5048           
1 53911U 22119AB  22285.83334491 -.00056468  00000+0 -39992-3 0  9993
2 53911  53.2175 164.5441 0001171  95.7224 197.2321 15.73241203  3240
STARLINK-5059           
1 53912U 22119AC  22285.58334491  .00216472  00000+0  15104-2 0  9995
2 53912  53.2172 165.7806 0001281  61.5141 257.0732 15.73153176  1304
STARLINK-5053           
1 53913U 22119AD  22285.83334491 -.00202313  00000+0 -14632-2 0  9990
2 53913  53.2175 164.5361 0001003  92.5231 204.5508 15.73340292  3247
STARLINK-5040           
1 53914U 22119AE  22285.83334491 -.00218731  00000+0 -15847-2 0  9991
2 53914  53.2176 164.5351 0000985  80.2701 217.3958 15.73350261  3240
